start=new Date('2021-11-16T00:00:00.000Z').valueOf();
sats=[{"MEAN_MOTION_DOT":"-0.00000768","CLASSIFICATION_TYPE":"U","PERIOD":"95.592","NORAD_CAT_ID":"48595","SEMIMAJOR_AXIS":"6925.361","MEAN_MOTION":"15.06396005","REF_FRAME":"TEME","EPHEMERIS_TYPE":"0","OBJECT_NAME":"STARLINK-2252","PERIAPSIS":"546.380","SITE":"AFETR","MEAN_ANOMALY":"289.6982","MEAN_ELEMENT_THEORY":"SGP4","COUNTRY_CODE":"US","ARG_OF_PERICENTER":"70.4139","RA_OF_ASC_NODE":"12.3611","APOAPSIS":"548.072","RCS_SIZE":"LARGE","MEAN_MOTION_DDOT":"0.0000000000000","FILE":"3215928","TLE_LINE2":"2 48595  53.0569  12.3611 0001222  70.4139 289.6982 15.06396005 28937","TLE_LINE1":"1 48595U 21041AU  21319.62429900 -.00000768  00000-0 -32678-4 0  9990","CENTER_NAME":"EARTH","REV_AT_EPOCH":"2893","LAUNCH_DATE":"2021-05-15","TIME_SYSTEM":"UTC","OBJECT_ID":"2021-041AU","GP_ID":"189839352","ECCENTRICITY":"0.00012220","DECAY_DATE":null,"ELEMENT_SET_NO":"999","EPOCH":"2021-11-15T14:58:59.433600","INCLINATION":"53.0569","OBJECT_TYPE":"PAYLOAD","BSTAR":"-0.00003267800000"},{"REF_FRAME":"TEME","EPHEMERIS_TYPE":"0","OBJECT_NAME":"STARLINK-2253","PERIAPSIS":"546.193","MEAN_MOTION_DOT":"0.00001060","PERIOD":"95.592","CLASSIFICATION_TYPE":"U","NORAD_CAT_ID":"48596","SEMIMAJOR_AXIS":"6925.352","MEAN_MOTION":"15.06398913","RCS_SIZE":"LARGE","MEAN_MOTION_DDOT":"0.0000000000000","FILE":"3215880","MEAN_ANOMALY":"290.0615","SITE":"AFETR","MEAN_ELEMENT_THEORY":"SGP4","COUNTRY_CODE":"US","ARG_OF_PERICENTER":"70.0534","RA_OF_ASC_NODE":"11.3666","APOAPSIS":"548.241","LAUNCH_DATE":"2021-05-15","OBJECT_ID":"2021-041AV","TIME_SYSTEM":"UTC","TLE_LINE2":"2 48596  53.0562  11.3666 0001479  70.0534 290.0615 15.06398913 28152","TLE_LINE1":"1 48596U 21041AV  21319.84545854  .00001060  00000-0  90048-4 0  9991","CENTER_NAME":"EARTH","REV_AT_EPOCH":"2815","ECCENTRICITY":"0.00014790","DECAY_DATE":null,"ELEMENT_SET_NO":"999","INCLINATION":"53.0562","EPOCH":"2021-11-15T20:17:27.617856","OBJECT_TYPE":"PAYLOAD","BSTAR":"0.00009004800000","GP_ID":"189816009"},{"MEAN_MOTION_DOT":"0.00000848","PERIOD":"95.592","NORAD_CAT_ID":"48597","CLASSIFICATION_TYPE":"U","SEMIMAJOR_AXIS":"6925.343","MEAN_MOTION":"15.06401804","REF_FRAME":"TEME","OBJECT_NAME":"STARLINK-2255","EPHEMERIS_TYPE":"0","PERIAPSIS":"546.364","MEAN_ANOMALY":"295.7800","SITE":"AFETR","MEAN_ELEMENT_THEORY":"SGP4","COUNTRY_CODE":"US","ARG_OF_PERICENTER":"64.3315","RA_OF_ASC_NODE":"11.3398","APOAPSIS":"548.052","RCS_SIZE":"LARGE","MEAN_MOTION_DDOT":"0.0000000000000","FILE":"3215880","TLE_LINE2":"2 48597  53.0573  11.3398 0001219  64.3315 295.7800 15.06401804 28963","TLE_LINE1":"1 48597U 21041AW  21319.85282573  .00000848  00000-0  75800-4 0  9991","CENTER_NAME":"EARTH","REV_AT_EPOCH":"2896","LAUNCH_DATE":"2021-05-15","TIME_SYSTEM":"UTC","OBJECT_ID":"2021-041AW","GP_ID":"189816006","ECCENTRICITY":"0.00012190","DECAY_DATE":null,"ELEMENT_SET_NO":"999","INCLINATION":"53.0573","EPOCH":"2021-11-15T20:28:04.143072","BSTAR":"0.00007580000000","OBJECT_TYPE":"PAYLOAD"},{"GP_ID":"189839235","DECAY_DATE":null,"ECCENTRICITY":"0.00011270","ELEMENT_SET_NO":"999","BSTAR":"0.00009644000000","OBJECT_TYPE":"PAYLOAD","EPOCH":"2021-11-15T20:33:22.667904","INCLINATION":"53.0554","TLE_LINE1":"1 48598U 21041AX  21319.85651236  .00001155  00000-0  96440-4 0  9993","TLE_LINE2":"2 48598  53.0554  11.3250 0001127  81.5218 278.5899 15.06397242 28159","CENTER_NAME":"EARTH","REV_AT_EPOCH":"2815","LAUNCH_DATE":"2021-05-15","TIME_SYSTEM":"UTC","OBJECT_ID":"2021-041AX","COUNTRY_CODE":"US","SITE":"AFETR","MEAN_ELEMENT_THEORY":"SGP4","MEAN_ANOMALY":"278.5899","RA_OF_ASC_NODE":"11.3250","ARG_OF_PERICENTER":"81.5218","APOAPSIS":"548.002","RCS_SIZE":"LARGE","FILE":"3215928","MEAN_MOTION_DDOT":"0.0000000000000","PERIOD":"95.592","CLASSIFICATION_TYPE":"U","NORAD_CAT_ID":"48598","MEAN_MOTION_DOT":"0.00001155","SEMIMAJOR_AXIS":"6925.357","MEAN_MOTION":"15.06397242","REF_FRAME":"TEME","OBJECT_NAME":"STARLINK-2256","EPHEMERIS_TYPE":"0","PERIAPSIS":"546.442"},{"TIME_SYSTEM":"UTC","OBJECT_ID":"2021-041AY","LAUNCH_DATE":"2021-05-15","CENTER_NAME":"EARTH","REV_AT_EPOCH":"2931","TLE_LINE1":"1 48599U 21041AY  21319.81641844 -.00000046  00000-0  15825-4 0  9991","TLE_LINE2":"2 48599  53.0560 346.4866 0001424  62.2338 297.8795 15.06406602 29310","OBJECT_TYPE":"PAYLOAD","BSTAR":"0.00001582500000","INCLINATION":"53.0560","EPOCH":"2021-11-15T19:35:38.553216","DECAY_DATE":null,"ECCENTRICITY":"0.00014240","ELEMENT_SET_NO":"999","GP_ID":"189839702","EPHEMERIS_TYPE":"0","OBJECT_NAME":"STARLINK-2274","PERIAPSIS":"546.207","REF_FRAME":"TEME","MEAN_MOTION":"15.06406602","NORAD_CAT_ID":"48599","PERIOD":"95.592","CLASSIFICATION_TYPE":"U","MEAN_MOTION_DOT":"-0.00000046","SEMIMAJOR_AXIS":"6925.328","FILE":"3215928","MEAN_MOTION_DDOT":"0.0000000000000","RCS_SIZE":"LARGE","APOAPSIS":"548.179","COUNTRY_CODE":"US","MEAN_ELEMENT_THEORY":"SGP4","SITE":"AFETR","MEAN_ANOMALY":"297.8795","RA_OF_ASC_NODE":"346.4866","ARG_OF_PERICENTER":"62.2338"},{"GP_ID":"189839469","OBJECT_TYPE":"PAYLOAD","BSTAR":"-0.00001351900000","INCLINATION":"53.0535","EPOCH":"2021-11-15T20:29:23.961984","DECAY_DATE":null,"ECCENTRICITY":"0.00014080","ELEMENT_SET_NO":"999","CENTER_NAME":"EARTH","REV_AT_EPOCH":"2910","TLE_LINE1":"1 48600U 21041AZ  21319.85374956 -.00000483  00000-0 -13519-4 0  9999","TLE_LINE2":"2 48600  53.0535   1.3268 0001408  61.7095 298.4036 15.06394125 29102","OBJECT_ID":"2021-041AZ","TIME_SYSTEM":"UTC","LAUNCH_DATE":"2021-05-15","APOAPSIS":"548.207","COUNTRY_CODE":"US","MEAN_ANOMALY":"298.4036","SITE":"AFETR","MEAN_ELEMENT_THEORY":"SGP4","RA_OF_ASC_NODE":"1.3268","ARG_OF_PERICENTER":"61.7095","FILE":"3215928","MEAN_MOTION_DDOT":"0.0000000000000","RCS_SIZE":"LARGE","MEAN_MOTION":"15.06394125","PERIOD":"95.593","NORAD_CAT_ID":"48600","CLASSIFICATION_TYPE":"U","MEAN_MOTION_DOT":"-0.00000483","SEMIMAJOR_AXIS":"6925.367","OBJECT_NAME":"STARLINK-2275","EPHEMERIS_TYPE":"0","PERIAPSIS":"546.256","REF_FRAME":"TEME"},{"MEAN_MOTION":"15.06391239","SEMIMAJOR_AXIS":"6925.375","MEAN_MOTION_DOT":"-0.00000380","PERIOD":"95.593","NORAD_CAT_ID":"48602","CLASSIFICATION_TYPE":"U","PERIAPSIS":"546.204","EPHEMERIS_TYPE":"0","OBJECT_NAME":"STARLINK-2713","REF_FRAME":"TEME","APOAPSIS":"548.277","ARG_OF_PERICENTER":"73.8343","RA_OF_ASC_NODE":"346.6888","MEAN_ANOMALY":"286.2810","SITE":"AFETR","MEAN_ELEMENT_THEORY":"SGP4","COUNTRY_CODE":"US","MEAN_MOTION_DDOT":"0.0000000000000","FILE":"3215928","RCS_SIZE":"LARGE","REV_AT_EPOCH":"2929","CENTER_NAME":"EARTH","TLE_LINE2":"2 48602  53.0425 346.6888 0001497  73.8343 286.2810 15.06391239 29291","TLE_LINE1":"1 48602U 21041BB  21319.78326054 -.00000380  00000-0 -65834-5 0  9993","TIME_SYSTEM":"UTC","OBJECT_ID":"2021-041BB","LAUNCH_DATE":"2021-05-15","GP_ID":"189839819","INCLINATION":"53.0425","EPOCH":"2021-11-15T18:47:53.710656","BSTAR":"-0.00000658340000","OBJECT_TYPE":"PAYLOAD","ELEMENT_SET_NO":"999","ECCENTRICITY":"0.00014970","DECAY_DATE":null},{"GP_ID":"189839586","ECCENTRICITY":"0.00016440","DECAY_DATE":null,"ELEMENT_SET_NO":"999","EPOCH":"2021-11-15T18:18:00.200448","INCLINATION":"53.0511","BSTAR":"-0.00001807800000","OBJECT_TYPE":"PAYLOAD","TLE_LINE2":"2 48603  53.0511 341.7596 0001644  61.5668 298.5486 15.06393954 29378","TLE_LINE1":"1 48603U 21041BC  21319.76250232 -.00000551  00000-0 -18078-4 0  9993","CENTER_NAME":"EARTH","REV_AT_EPOCH":"2937","LAUNCH_DATE":"2021-05-15","OBJECT_ID":"2021-041BC","TIME_SYSTEM":"UTC","SITE":"AFETR","MEAN_ELEMENT_THEORY":"SGP4","MEAN_ANOMALY":"298.5486","COUNTRY_CODE":"US","ARG_OF_PERICENTER":"61.5668","RA_OF_ASC_NODE":"341.7596","APOAPSIS":"548.371","RCS_SIZE":"LARGE","MEAN_MOTION_DDOT":"0.0000000000000","FILE":"3215928","MEAN_MOTION_DOT":"-0.00000551","PERIOD":"95.593","CLASSIFICATION_TYPE":"U","NORAD_CAT_ID":"48603","SEMIMAJOR_AXIS":"6925.367","MEAN_MOTION":"15.06393954","REF_FRAME":"TEME","OBJECT_NAME":"STARLINK-2714","EPHEMERIS_TYPE":"0","PERIAPSIS":"546.094"},{"ELEMENT_SET_NO":"999","DECAY_DATE":null,"ECCENTRICITY":"0.00012260","BSTAR":"0.00000377160000","OBJECT_TYPE":"PAYLOAD","INCLINATION":"53.0569","EPOCH":"2021-11-15T11:58:31.904832","GP_ID":"189811044","LAUNCH_DATE":"2021-05-15","TIME_SYSTEM":"UTC","OBJECT_ID":"2021-041BD","TLE_LINE1":"1 48604U 21041BD  21319.49898038 -.00000225  00000-0  37716-5 0  9994","TLE_LINE2":"2 48604  53.0569  12.9212 0001226  71.2786 288.8336 15.06394803 28918","REV_AT_EPOCH":"2891","CENTER_NAME":"EARTH","RCS_SIZE":"LARGE","FILE":"3215681","MEAN_MOTION_DDOT":"0.0000000000000","RA_OF_ASC_NODE":"12.9212","ARG_OF_PERICENTER":"71.2786","COUNTRY_CODE":"US","MEAN_ANOMALY":"288.8336","SITE":"AFETR","MEAN_ELEMENT_THEORY":"SGP4","APOAPSIS":"548.079","REF_FRAME":"TEME","PERIAPSIS":"546.380","EPHEMERIS_TYPE":"0","OBJECT_NAME":"STARLINK-2757","SEMIMAJOR_AXIS":"6925.364","PERIOD":"95.592","CLASSIFICATION_TYPE":"U","NORAD_CAT_ID":"48604","MEAN_MOTION_DOT":"-0.00000225","MEAN_MOTION":"15.06394803"},{"FILE":"3215928","MEAN_MOTION_DDOT":"0.0000000000000","RCS_SIZE":"LARGE","APOAPSIS":"548.337","RA_OF_ASC_NODE":"346.6430","ARG_OF_PERICENTER":"58.7030","COUNTRY_CODE":"US","SITE":"AFETR","MEAN_ELEMENT_THEORY":"SGP4","MEAN_ANOMALY":"301.4116","PERIAPSIS":"546.116","EPHEMERIS_TYPE":"0","OBJECT_NAME":"STARLINK-2758","REF_FRAME":"TEME","MEAN_MOTION":"15.06395826","SEMIMAJOR_AXIS":"6925.361","CLASSIFICATION_TYPE":"U","PERIOD":"95.592","NORAD_CAT_ID":"48638","MEAN_MOTION_DOT":"-0.00000536","OBJECT_TYPE":"PAYLOAD","BSTAR":"-0.00001710500000","INCLINATION":"53.0572","EPOCH":"2021-11-15T18:46:32.071296","ELEMENT_SET_NO":"999","DECAY_DATE":null,"ECCENTRICITY":"0.00016040","GP_ID":"189839940","TIME_SYSTEM":"UTC","OBJECT_ID":"2021-044A","LAUNCH_DATE":"2021-05-26","REV_AT_EPOCH":"2640","CENTER_NAME":"EARTH","TLE_LINE1":"1 48638U 21044A   21319.78231564 -.00000536  00000-0 -17105-4 0  9996","TLE_LINE2":"2 48638  53.0572 346.6430 0001604  58.7030 301.4116 15.06395826 26406"}];
